OBJECT_NAME,OBJECT_ID,EPOCH,MEAN_MOTION,ECCENTRICITY,INCLINATION,RA_OF_ASC_NODE,ARG_OF_PERICENTER,MEAN_ANOMALY,EPHEMERIS_TYPE,CLASSIFICATION_TYPE,NORAD_CAT_ID,ELEMENT_SET_NO,REV_AT_EPOCH,BSTAR,MEAN_MOTION_DOT,MEAN_MOTION_DDOT
STARLINK-37777,2026-122W,2026-06-10T12:00:02.000160,15.94093329,.0001188,97.2869,190.5714,117.0271,195.5805,0,U,69349,999,228,-.44059E-2,-.1605419E-1,.73904E-3
STARLINK-37779,2026-122X,2026-06-10T12:00:02.000160,15.94430407,.000084,97.2869,190.5744,89.7612,229.5520,0,U,69350,999,228,-.16437E-2,-.614088E-2,.12425E-3
STARLINK-37549,2026-122Y,2026-06-10T12:00:02.000160,15.94562332,.0001172,97.2869,190.5753,118.9350,202.0805,0,U,69351,999,228,-.47032E-2,-.1754811E-1,.87638E-3
STARLINK-37778,2026-122Z,2026-06-10T12:00:02.000160,15.94571413,.000113,97.2869,190.5756,117.5061,204.6903,0,U,69352,999,228,-.43305E-2,-.1618061E-1,.75362E-3
STARLINK-37651,2026-123A,2026-06-10T12:00:02.000160,15.91239800,.0000778,53.1580,275.4548,43.2063,58.0731,0,U,69353,999,207,-.2083E-2,-.683431E-2,.1534E-3
STARLINK-37652,2026-123B,2026-06-10T12:00:02.000160,15.91835997,.0000889,53.1579,275.4448,54.0914,51.9679,0,U,69354,999,207,-.63842E-2,-.213312E-1,.12255E-2
STARLINK-37593,2026-123C,2026-06-10T12:00:02.000160,15.92033116,.0001112,53.1580,275.4379,37.9286,71.4651,0,U,69355,999,212,-.62988E-2,-.2126312E-1,.12206E-2
STARLINK-37597,2026-123D,2026-06-10T12:00:02.000160,15.92399556,.0001001,53.1578,275.4270,36.8835,77.7179,0,U,69356,999,212,-.61745E-2,-.2124463E-1,.12232E-2
STARLINK-37598,2026-123E,2026-06-10T12:00:02.000160,15.92861350,.0000987,53.1578,275.4157,47.7490,72.2966,0,U,69357,999,212,-.58567E-2,-.2065055E-1,.11652E-2
STARLINK-37602,2026-123F,2026-06-10T12:00:02.000160,15.93007480,.0001124,53.1578,275.4084,45.4577,78.1695,0,U,69358,999,212,-.58232E-2,-.2069044E-1,.11712E-2
STARLINK-37600,2026-123G,2026-06-10T12:00:02.000160,15.93686403,.0001181,53.1576,275.3933,41.7642,89.1050,0,U,69359,999,212,-.51757E-2,-.190799E-1,.10137E-2
STARLINK-37599,2026-123H,2026-06-10T12:00:02.000160,15.93618181,.0001056,53.1577,275.3788,40.9329,96.8519,0,U,69360,999,207,-.17723E-2,-.65865E-2,.14709E-3
STARLINK-37039,2026-123J,2026-06-10T12:00:02.000160,15.93976392,.0000999,53.1577,275.3725,54.1953,86.5437,0,U,69361,999,207,-.57285E-2,-.2141218E-1,.12621E-2
STARLINK-37040,2026-123K,2026-06-10T12:00:02.000160,15.95960122,.0001038,53.1577,275.3558,57.2635,91.3586,0,U,69362,999,207,-.44128E-2,-.1838573E-1,.96874E-3
STARLINK-37582,2026-123L,2026-06-10T12:00:02.000160,15.94883421,.0001172,53.1575,275.3482,41.0332,111.4199,0,U,69363,999,207,-.48172E-2,-.1892944E-1,.10113E-2
STARLINK-37309,2026-123M,2026-06-10T12:00:02.000160,15.96332737,.0000812,53.1573,275.3365,52.1807,105.9382,0,U,69364,999,221,-.99144E-3,-.428097E-2,.72227E-4
STARLINK-37436,2026-123N,2026-06-10T12:00:02.000160,15.96940479,.0000812,53.1574,275.3174,49.5758,117.5471,0,U,69365,999,221,-.9479E-3,-.423242E-2,.71316E-4
STARLINK-37581,2026-123P,2026-06-10T12:00:02.000160,15.96581769,.000076,53.1574,275.3084,56.2447,115.2684,0,U,69366,999,206,-.96993E-3,-.424601E-2,.71437E-4
STARLINK-37683,2026-123Q,2026-06-10T12:00:02.000160,15.96902726,.0001183,53.1574,275.2979,43.1996,133.2848,0,U,69367,999,207,-.95144E-3,-.42395E-2,.71486E-4
STARLINK-37687,2026-123R,2026-06-10T12:00:02.000160,15.98108405,.0000829,53.1573,275.2817,50.8061,133.4717,0,U,69368,999,207,-.83255E-3,-.396919E-2,.65E-4
STARLINK-37631,2026-123S,2026-06-10T12:00:02.000160,15.98406923,.0000869,53.1572,275.2708,49.2854,140.3756,0,U,69369,999,212,-.8431E-3,-.408608E-2,.68332E-4
STARLINK-37673,2026-123T,2026-06-10T12:00:02.000160,15.98890201,.0000943,53.1569,275.2577,50.6126,145.3416,0,U,69370,999,212,-.80148E-3,-.399257E-2,.66137E-4
STARLINK-37645,2026-123U,2026-06-10T12:00:02.000160,15.98942937,.0000931,53.1570,275.2511,48.7357,150.3026,0,U,69371,999,212,-.8017E-3,-.400548E-2,.66518E-4
STARLINK-37688,2026-123V,2026-06-10T12:00:02.000160,16.01133846,.0000581,53.1570,275.2020,59.5931,162.8740,0,U,69372,999,212,-.18301E-2,-.1027171E-1,.35299E-3
STARLINK-37685,2026-123W,2026-06-10T12:00:02.000160,16.01568961,.0000618,53.1568,275.1932,51.3420,175.3997,0,U,69373,999,212,-.29866E-2,-.1708101E-1,.89844E-3
STARLINK-37632,2026-123X,2026-06-10T12:00:02.000160,16.00452067,.0000406,53.1568,275.1835,44.5636,186.8411,0,U,69374,999,207,-.99168E-3,-.538451E-2,.11101E-3
STARLINK-37454,2026-123Y,2026-06-10T12:00:02.000160,16.01433590,.0000215,53.1568,275.1699,67.6282,170.1471,0,U,69375,999,221,-.29175E-2,-.1656091E-1,.84709E-3
STARLINK-37485,2026-123Z,2026-06-10T12:00:02.000160,16.01376043,.0000257,53.1567,275.1616,70.9844,170.7006,0,U,69376,999,222,-.25976E-2,-.1471994E-1,.68137E-3
STARLINK-37439,2026-123AA,2026-06-10T12:00:02.000160,16.03068357,.0000771,53.1564,275.1462,50.2749,198.8346,0,U,69377,999,207,-.24875E-2,-.1556135E-1,.76926E-3
