STARLINK-37777          
1 69349U 26122W   26161.50002315 -.01605419  73904-3 -44059-2 0  9994
2 69349  97.2869 190.5714 0001188 117.0271 195.5805 15.94093329  2288
STARLINK-37779          
1 69350U 26122X   26161.50002315 -.00614088  12425-3 -16437-2 0  9997
2 69350  97.2869 190.5744 0000840  89.7612 229.5520 15.94430407  2285
STARLINK-37549          
1 69351U 26122Y   26161.50002315 -.01754811  87638-3 -47032-2 0  9991
2 69351  97.2869 190.5753 0001172 118.9350 202.0805 15.94562332  2284
STARLINK-37778          
1 69352U 26122Z   26161.50002315 -.01618061  75362-3 -43305-2 0  9998
2 69352  97.2869 190.5756 0001130 117.5061 204.6903 15.94571413  2283
STARLINK-37651          
1 69353U 26123A   26161.50002315 -.00683431  15340-3 -20830-2 0  9990
2 69353  53.1580 275.4548 0000778  43.2063  58.0731 15.91239800  2076
STARLINK-37652          
1 69354U 26123B   26161.50002315 -.02133120  12255-2 -63842-2 0  9999
2 69354  53.1579 275.4448 0000889  54.0914  51.9679 15.91835997  2074
STARLINK-37593          
1 69355U 26123C   26161.50002315 -.02126312  12206-2 -62988-2 0  9991
2 69355  53.1580 275.4379 0001112  37.9286  71.4651 15.92033116  2129
STARLINK-37597          
1 69356U 26123D   26161.50002315 -.02124463  12232-2 -61745-2 0  9996
2 69356  53.1578 275.4270 0001001  36.8835  77.7179 15.92399556  2129
STARLINK-37598          
1 69357U 26123E   26161.50002315 -.02065055  11652-2 -58567-2 0  9991
2 69357  53.1578 275.4157 0000987  47.7490  72.2966 15.92861350  2124
STARLINK-37602          
1 69358U 26123F   26161.50002315 -.02069044  11712-2 -58232-2 0  9990
2 69358  53.1578 275.4084 0001124  45.4577  78.1695 15.93007480  2120
STARLINK-37600          
1 69359U 26123G   26161.50002315 -.01907990  10137-2 -51757-2 0  9996
2 69359  53.1576 275.3933 0001181  41.7642  89.1050 15.93686403  2121
STARLINK-37599          
1 69360U 26123H   26161.50002315 -.00658650  14709-3 -17723-2 0  9998
2 69360  53.1577 275.3788 0001056  40.9329  96.8519 15.93618181  2073
STARLINK-37039          
1 69361U 26123J   26161.50002315 -.02141218  12621-2 -57285-2 0  9995
2 69361  53.1577 275.3725 0000999  54.1953  86.5437 15.93976392  2076
STARLINK-37040          
1 69362U 26123K   26161.50002315 -.01838573  96874-3 -44128-2 0  9997
2 69362  53.1577 275.3558 0001038  57.2635  91.3586 15.95960122  2072
STARLINK-37582          
1 69363U 26123L   26161.50002315 -.01892944  10113-2 -48172-2 0  9994
2 69363  53.1575 275.3482 0001172  41.0332 111.4199 15.94883421  2070
STARLINK-37309          
1 69364U 26123M   26161.50002315 -.00428097  72227-4 -99144-3 0  9990
2 69364  53.1573 275.3365 0000812  52.1807 105.9382 15.96332737  2218
STARLINK-37436          
1 69365U 26123N   26161.50002315 -.00423242  71316-4 -94790-3 0  9998
2 69365  53.1574 275.3174 0000812  49.5758 117.5471 15.96940479  2219
STARLINK-37581          
1 69366U 26123P   26161.50002315 -.00424601  71437-4 -96993-3 0  9990
2 69366  53.1574 275.3084 0000760  56.2447 115.2684 15.96581769  2069
STARLINK-37683          
1 69367U 26123Q   26161.50002315 -.00423950  71486-4 -95144-3 0  9998
2 69367  53.1574 275.2979 0001183  43.1996 133.2848 15.96902726  2079
STARLINK-37687          
1 69368U 26123R   26161.50002315 -.00396919  65000-4 -83255-3 0  9998
2 69368  53.1573 275.2817 0000829  50.8061 133.4717 15.98108405  2075
STARLINK-37631          
1 69369U 26123S   26161.50002315 -.00408608  68332-4 -84310-3 0  9992
2 69369  53.1572 275.2708 0000869  49.2854 140.3756 15.98406923  2122
STARLINK-37673          
1 69370U 26123T   26161.50002315 -.00399257  66137-4 -80148-3 0  9999
2 69370  53.1569 275.2577 0000943  50.6126 145.3416 15.98890201  2129
STARLINK-37645          
1 69371U 26123U   26161.50002315 -.00400548  66518-4 -80170-3 0  9994
2 69371  53.1570 275.2511 0000931  48.7357 150.3026 15.98942937  2128
STARLINK-37688          
1 69372U 26123V   26161.50002315 -.01027171  35299-3 -18301-2 0  9990
2 69372  53.1570 275.2020 0000581  59.5931 162.8740 16.01133846  2120
STARLINK-37685          
1 69373U 26123W   26161.50002315 -.01708101  89844-3 -29866-2 0  9993
2 69373  53.1568 275.1932 0000618  51.3420 175.3997 16.01568961  2126
STARLINK-37632          
1 69374U 26123X   26161.50002315 -.00538451  11101-3 -99168-3 0  9996
2 69374  53.1568 275.1835 0000406  44.5636 186.8411 16.00452067  2077
STARLINK-37454          
1 69375U 26123Y   26161.50002315 -.01656091  84709-3 -29175-2 0  9993
2 69375  53.1568 275.1699 0000215  67.6282 170.1471 16.01433590  2216
STARLINK-37485          
1 69376U 26123Z   26161.50002315 -.01471994  68137-3 -25976-2 0  9993
2 69376  53.1567 275.1616 0000257  70.9844 170.7006 16.01376043  2222
STARLINK-37439          
1 69377U 26123AA  26161.50002315 -.01556135  76926-3 -24875-2 0  9997
2 69377  53.1564 275.1462 0000771  50.2749 198.8346 16.03068357  2074
